IRIDIUM 126             
1 42809U 17039G   23363.57660496  .00000393  00000+0  13340-3 0  9991
2 42809  86.3971  10.0128 0002514  93.3130 266.8353 14.34213407340865
IRIDIUM 124             
1 42810U 17039H   23363.93004322  .00000582  00000+0  16694-3 0  9998
2 42810  86.4496 306.6196 0002109  80.6774 279.4666 14.43294300345269
IRIDIUM 128             
1 42811U 17039J   23363.63711164  .00000092  00000+0  25639-4 0  9991
2 42811  86.3961  41.5048 0002282  92.1366 268.0091 14.34215679340908
IRIDIUM 121             
1 42812U 17039K   23363.94447935  .00000043  00000+0  82673-5 0  9996
2 42812  86.3969   9.8810 0002258  93.1500 266.9954 14.34213357340798
IRIDIUM 133             
1 42955U 17061A   23363.59905731  .00000331  00000+0  11120-3 0  9990
2 42955  86.3963  41.6162 0002335  95.2664 264.8798 14.34218172325699
IRIDIUM 100             
1 42956U 17061B   23363.17410415  .00000063  00000+0  15568-4 0  9998
2 42956  86.3960  41.7338 0002448  99.3464 260.8008 14.34217341325632
IRIDIUM 122             
1 42957U 17061C   23363.63077275  .00000334  00000+0  11204-3 0  9996
2 42957  86.3960  41.5407 0002331  91.4322 268.7141 14.34217420325706
IRIDIUM 129             
1 42958U 17061D   23363.65614174  .00000066  00000+0  16376-4 0  9992
2 42958  86.3959  41.5876 0002280  88.4124 271.7333 14.34218343325728
